[{"OBJECT_NAME":"HELIOS 1B","OBJECT_ID":"1999-064A","EPOCH":"2026-04-02T07:42:13.124736","MEAN_MOTION":14.8779216,"ECCENTRICITY":0.00016132,"INCLINATION":98.1674,"RA_OF_ASC_NODE":355.2566,"ARG_OF_PERICENTER":45.7938,"MEAN_ANOMALY":314.3409,"EPHEMERIS_TYPE":0,"CLASSIFICATION_TYPE":"U","NORAD_CAT_ID":25977,"ELEMENT_SET_NO":999,"REV_AT_EPOCH":68877,"BSTAR":0.00027759366,"MEAN_MOTION_DOT":2.476e-5,"MEAN_MOTION_DDOT":0},{"OBJECT_NAME":"TERRA","OBJECT_ID":"1999-068A","EPOCH":"2026-04-02T06:36:05.552064","MEAN_MOTION":14.61040692,"ECCENTRICITY":0.00036547,"INCLINATION":97.9543,"RA_OF_ASC_NODE":144.803,"ARG_OF_PERICENTER":102.9377,"MEAN_ANOMALY":321.6839,"EPHEMERIS_TYPE":0,"CLASSIFICATION_TYPE":"U","NORAD_CAT_ID":25994,"ELEMENT_SET_NO":999,"REV_AT_EPOCH":39852,"BSTAR":0.00014278606,"MEAN_MOTION_DOT":6.57e-6,"MEAN_MOTION_DDOT":0},{"OBJECT_NAME":"SL-16 R/B","OBJECT_ID":"2000-006B","EPOCH":"2026-04-02T07:51:28.574784","MEAN_MOTION":14.15830216,"ECCENTRICITY":0.00153843,"INCLINATION":71.0035,"RA_OF_ASC_NODE":48.1313,"ARG_OF_PERICENTER":152.7892,"MEAN_ANOMALY":207.404,"EPHEMERIS_TYPE":0,"CLASSIFICATION_TYPE":"U","NORAD_CAT_ID":26070,"ELEMENT_SET_NO":999,"REV_AT_EPOCH":35190,"BSTAR":0.00012678839,"MEAN_MOTION_DOT":2.02e-6,"MEAN_MOTION_DDOT":0},{"OBJECT_NAME":"TITAN 4B R/B","OBJECT_ID":"2000-047B","EPOCH":"2026-04-02T06:47:00.179808","MEAN_MOTION":15.0978277,"ECCENTRICITY":0.00401171,"INCLINATION":67.9907,"RA_OF_ASC_NODE":334.1596,"ARG_OF_PERICENTER":7.6994,"MEAN_ANOMALY":352.4762,"EPHEMERIS_TYPE":0,"CLASSIFICATION_TYPE":"U","NORAD_CAT_ID":26474,"ELEMENT_SET_NO":999,"REV_AT_EPOCH":39647,"BSTAR":0.00030688169,"MEAN_MOTION_DOT":4.928e-5,"MEAN_MOTION_DDOT":0},{"OBJECT_NAME":"ENVISAT","OBJECT_ID":"2002-009A","EPOCH":"2026-04-02T07:59:26.739168","MEAN_MOTION":14.39045512,"ECCENTRICITY":0.00012096,"INCLINATION":98.3769,"RA_OF_ASC_NODE":45.3731,"ARG_OF_PERICENTER":82.3136,"MEAN_ANOMALY":35.0734,"EPHEMERIS_TYPE":0,"CLASSIFICATION_TYPE":"U","NORAD_CAT_ID":27386,"ELEMENT_SET_NO":999,"REV_AT_EPOCH":26257,"BSTAR":7.3743432e-5,"MEAN_MOTION_DOT":1.85e-6,"MEAN_MOTION_DDOT":0},{"OBJECT_NAME":"IDEFIX & ARIANE 42P R/B","OBJECT_ID":"2002-021B","EPOCH":"2026-04-02T06:26:39.776352","MEAN_MOTION":14.31042674,"ECCENTRICITY":0.00128107,"INCLINATION":98.5898,"RA_OF_ASC_NODE":30.5968,"ARG_OF_PERICENTER":115.3367,"MEAN_ANOMALY":244.9144,"EPHEMERIS_TYPE":0,"CLASSIFICATION_TYPE":"U","NORAD_CAT_ID":27422,"ELEMENT_SET_NO":999,"REV_AT_EPOCH":24739,"BSTAR":0.00016546306,"MEAN_MOTION_DOT":3.92e-6,"MEAN_MOTION_DDOT":0},{"OBJECT_NAME":"AQUA","OBJECT_ID":"2002-022A","EPOCH":"2026-04-02T07:18:51.169824","MEAN_MOTION":14.62033293,"ECCENTRICITY":0.00013075,"INCLINATION":98.4215,"RA_OF_ASC_NODE":60.1071,"ARG_OF_PERICENTER":116.3371,"MEAN_ANOMALY":349.5399,"EPHEMERIS_TYPE":0,"CLASSIFICATION_TYPE":"U","NORAD_CAT_ID":27424,"ELEMENT_SET_NO":999,"REV_AT_EPOCH":27218,"BSTAR":0.00030630945,"MEAN_MOTION_DOT":1.488e-5,"MEAN_MOTION_DDOT":0},{"OBJECT_NAME":"CZ-4B R/B","OBJECT_ID":"2002-024C","EPOCH":"2026-04-02T03:07:39.165024","MEAN_MOTION":14.14551841,"ECCENTRICITY":0.00493433,"INCLINATION":98.8786,"RA_OF_ASC_NODE":145.4135,"ARG_OF_PERICENTER":317.3188,"MEAN_ANOMALY":96.6752,"EPHEMERIS_TYPE":0,"CLASSIFICATION_TYPE":"U","NORAD_CAT_ID":27432,"ELEMENT_SET_NO":999,"REV_AT_EPOCH":23255,"BSTAR":5.4022255e-5,"MEAN_MOTION_DOT":6.0e-7,"MEAN_MOTION_DDOT":0},{"OBJECT_NAME":"MIDORI II (ADEOS-II)","OBJECT_ID":"2002-056A","EPOCH":"2026-04-02T07:48:13.326336","MEAN_MOTION":14.29303846,"ECCENTRICITY":5.022e-5,"INCLINATION":98.781,"RA_OF_ASC_NODE":50.9722,"ARG_OF_PERICENTER":21.3905,"MEAN_ANOMALY":338.7297,"EPHEMERIS_TYPE":0,"CLASSIFICATION_TYPE":"U","NORAD_CAT_ID":27597,"ELEMENT_SET_NO":999,"REV_AT_EPOCH":21367,"BSTAR":0.00019945043,"MEAN_MOTION_DOT":4.62e-6,"MEAN_MOTION_DDOT":0},{"OBJECT_NAME":"H-2A R/B","OBJECT_ID":"2002-056E","EPOCH":"2026-04-02T03:30:21.685248","MEAN_MOTION":14.33776953,"ECCENTRICITY":0.00714315,"INCLINATION":98.3245,"RA_OF_ASC_NODE":51.6245,"ARG_OF_PERICENTER":91.6485,"MEAN_ANOMALY":280.3323,"EPHEMERIS_TYPE":0,"CLASSIFICATION_TYPE":"U","NORAD_CAT_ID":27601,"ELEMENT_SET_NO":999,"REV_AT_EPOCH":21747,"BSTAR":0.00014167352,"MEAN_MOTION_DOT":3.64e-6,"MEAN_MOTION_DDOT":0},{"OBJECT_NAME":"CZ-4B R/B","OBJECT_ID":"2003-049C","EPOCH":"2026-04-01T23:17:54.053664","MEAN_MOTION":14.55041279,"ECCENTRICITY":0.0048523,"INCLINATION":98.6895,"RA_OF_ASC_NODE":87.7926,"ARG_OF_PERICENTER":159.3872,"MEAN_ANOMALY":200.9296,"EPHEMERIS_TYPE":0,"CLASSIFICATION_TYPE":"U","NORAD_CAT_ID":28059,"ELEMENT_SET_NO":999,"REV_AT_EPOCH":18998,"BSTAR":0.0001097,"MEAN_MOTION_DOT":4.29e-6,"MEAN_MOTION_DDOT":0},{"OBJECT_NAME":"CZ-2C R/B","OBJECT_ID":"2004-012C","EPOCH":"2026-04-02T04:31:57.745920","MEAN_MOTION":15.67476463,"ECCENTRICITY":0.00135947,"INCLINATION":97.7175,"RA_OF_ASC_NODE":159.753,"ARG_OF_PERICENTER":217.1187,"MEAN_ANOMALY":142.9134,"EPHEMERIS_TYPE":0,"CLASSIFICATION_TYPE":"U","NORAD_CAT_ID":28222,"ELEMENT_SET_NO":999,"REV_AT_EPOCH":20795,"BSTAR":0.00068493744,"MEAN_MOTION_DOT":0.00074917,"MEAN_MOTION_DDOT":0},{"OBJECT_NAME":"SL-16 R/B","OBJECT_ID":"2004-021B","EPOCH":"2026-04-02T06:53:32.833248","MEAN_MOTION":14.1459809,"ECCENTRICITY":0.00052535,"INCLINATION":71.0011,"RA_OF_ASC_NODE":182.9728,"ARG_OF_PERICENTER":340.3747,"MEAN_ANOMALY":19.7172,"EPHEMERIS_TYPE":0,"CLASSIFICATION_TYPE":"U","NORAD_CAT_ID":28353,"ELEMENT_SET_NO":999,"REV_AT_EPOCH":12617,"BSTAR":0.00021561175,"MEAN_MOTION_DOT":3.67e-6,"MEAN_MOTION_DDOT":0},{"OBJECT_NAME":"CZ-4B R/B","OBJECT_ID":"2004-035C","EPOCH":"2026-04-02T08:01:11.782560","MEAN_MOTION":15.29486524,"ECCENTRICITY":0.00301895,"INCLINATION":97.3455,"RA_OF_ASC_NODE":126.2948,"ARG_OF_PERICENTER":242.9987,"MEAN_ANOMALY":116.8171,"EPHEMERIS_TYPE":0,"CLASSIFICATION_TYPE":"U","NORAD_CAT_ID":28415,"ELEMENT_SET_NO":999,"REV_AT_EPOCH":18352,"BSTAR":0.00039051821,"MEAN_MOTION_DOT":0.00011245,"MEAN_MOTION_DDOT":0},{"OBJECT_NAME":"CZ-2C R/B","OBJECT_ID":"2004-046B","EPOCH":"2026-04-02T07:49:04.658304","MEAN_MOTION":14.27001228,"ECCENTRICITY":0.01406396,"INCLINATION":98.1977,"RA_OF_ASC_NODE":5.837,"ARG_OF_PERICENTER":85.0199,"MEAN_ANOMALY":276.7021,"EPHEMERIS_TYPE":0,"CLASSIFICATION_TYPE":"U","NORAD_CAT_ID":28480,"ELEMENT_SET_NO":999,"REV_AT_EPOCH":11187,"BSTAR":0.00010385425,"MEAN_MOTION_DOT":2.41e-6,"MEAN_MOTION_DDOT":0},{"OBJECT_NAME":"ARIANE 5 R/B","OBJECT_ID":"2004-049H","EPOCH":"2026-04-02T05:04:13.524096","MEAN_MOTION":14.85311686,"ECCENTRICITY":0.00828334,"INCLINATION":98.266,"RA_OF_ASC_NODE":261.5547,"ARG_OF_PERICENTER":274.9307,"MEAN_ANOMALY":84.2454,"EPHEMERIS_TYPE":0,"CLASSIFICATION_TYPE":"U","NORAD_CAT_ID":28499,"ELEMENT_SET_NO":999,"REV_AT_EPOCH":14928,"BSTAR":0.00014803753,"MEAN_MOTION_DOT":1.286e-5,"MEAN_MOTION_DDOT":0},{"OBJECT_NAME":"CZ-2D R/B","OBJECT_ID":"2005-024B","EPOCH":"2026-04-02T07:06:34.741152","MEAN_MOTION":15.62381263,"ECCENTRICITY":0.00018227,"INCLINATION":97.3564,"RA_OF_ASC_NODE":108.3444,"ARG_OF_PERICENTER":300.0803,"MEAN_ANOMALY":60.0274,"EPHEMERIS_TYPE":0,"CLASSIFICATION_TYPE":"U","NORAD_CAT_ID":28738,"ELEMENT_SET_NO":999,"REV_AT_EPOCH":14346,"BSTAR":0.00071388408,"MEAN_MOTION_DOT":0.00063445,"MEAN_MOTION_DDOT":0}]
